[{"OBJECT_NAME":"ONEWEB-0212","OBJECT_ID":"2021-045AA","EPOCH":"2025-09-29T13:28:28.047072","MEAN_MOTION":13.15549928,"ECCENTRICITY":0.0001863,"INCLINATION":87.9003,"RA_OF_ASC_NODE":311.1863,"ARG_OF_PERICENTER":96.5117,"MEAN_ANOMALY":263.6226,"EPHEMERIS_TYPE":0,"CLASSIFICATION_TYPE":"U","NORAD_CAT_ID":48791,"ELEMENT_SET_NO":999,"REV_AT_EPOCH":21016,"BSTAR":0.00034055,"MEAN_MOTION_DOT":1.41e-6,"MEAN_MOTION_DDOT":0},{"OBJECT_NAME":"ONEWEB-0227","OBJECT_ID":"2021-045AB","EPOCH":"2025-09-29T15:16:51.678336","MEAN_MOTION":13.15547909,"ECCENTRICITY":0.0001736,"INCLINATION":87.8997,"RA_OF_ASC_NODE":311.1887,"ARG_OF_PERICENTER":98.6635,"MEAN_ANOMALY":261.4692,"EPHEMERIS_TYPE":0,"CLASSIFICATION_TYPE":"U","NORAD_CAT_ID":48792,"ELEMENT_SET_NO":999,"REV_AT_EPOCH":21012,"BSTAR":0.00042903,"MEAN_MOTION_DOT":1.74e-6,"MEAN_MOTION_DDOT":0},{"OBJECT_NAME":"ONEWEB-0226","OBJECT_ID":"2021-045AC","EPOCH":"2025-09-29T15:07:42.866400","MEAN_MOTION":13.15549677,"ECCENTRICITY":0.0001448,"INCLINATION":87.8999,"RA_OF_ASC_NODE":311.1975,"ARG_OF_PERICENTER":97.7264,"MEAN_ANOMALY":262.4031,"EPHEMERIS_TYPE":0,"CLASSIFICATION_TYPE":"U","NORAD_CAT_ID":48793,"ELEMENT_SET_NO":999,"REV_AT_EPOCH":21009,"BSTAR":0.00035619,"MEAN_MOTION_DOT":1.47e-6,"MEAN_MOTION_DDOT":0},{"OBJECT_NAME":"ONEWEB-0224","OBJECT_ID":"2021-045AD","EPOCH":"2025-09-29T16:04:46.793856","MEAN_MOTION":13.15548518,"ECCENTRICITY":0.0002332,"INCLINATION":87.8998,"RA_OF_ASC_NODE":311.225,"ARG_OF_PERICENTER":118.3243,"MEAN_ANOMALY":241.8123,"EPHEMERIS_TYPE":0,"CLASSIFICATION_TYPE":"U","NORAD_CAT_ID":48794,"ELEMENT_SET_NO":999,"REV_AT_EPOCH":21002,"BSTAR":-0.00016128,"MEAN_MOTION_DOT":-4.8e-7,"MEAN_MOTION_DDOT":0},{"OBJECT_NAME":"ONEWEB-0233","OBJECT_ID":"2021-045AE","EPOCH":"2025-09-29T16:11:24.055008","MEAN_MOTION":13.1555013,"ECCENTRICITY":0.0001703,"INCLINATION":87.8999,"RA_OF_ASC_NODE":311.2351,"ARG_OF_PERICENTER":105.4357,"MEAN_ANOMALY":254.6961,"EPHEMERIS_TYPE":0,"CLASSIFICATION_TYPE":"U","NORAD_CAT_ID":48795,"ELEMENT_SET_NO":999,"REV_AT_EPOCH":21004,"BSTAR":-9.3034e-5,"MEAN_MOTION_DOT":-2.2e-7,"MEAN_MOTION_DDOT":0},{"OBJECT_NAME":"ONEWEB-0190","OBJECT_ID":"2021-045AF","EPOCH":"2025-09-29T14:03:49.735584","MEAN_MOTION":13.15547119,"ECCENTRICITY":0.0001217,"INCLINATION":87.8999,"RA_OF_ASC_NODE":311.2151,"ARG_OF_PERICENTER":113.3234,"MEAN_ANOMALY":246.8024,"EPHEMERIS_TYPE":0,"CLASSIFICATION_TYPE":"U","NORAD_CAT_ID":48796,"ELEMENT_SET_NO":999,"REV_AT_EPOCH":21010,"BSTAR":-0.00012536,"MEAN_MOTION_DOT":-3.4e-7,"MEAN_MOTION_DDOT":0},{"OBJECT_NAME":"ONEWEB-0236","OBJECT_ID":"2021-045AG","EPOCH":"2025-09-29T16:18:26.411904","MEAN_MOTION":13.15550355,"ECCENTRICITY":0.0001973,"INCLINATION":87.8998,"RA_OF_ASC_NODE":311.2077,"ARG_OF_PERICENTER":94.2371,"MEAN_ANOMALY":265.8985,"EPHEMERIS_TYPE":0,"CLASSIFICATION_TYPE":"U","NORAD_CAT_ID":48797,"ELEMENT_SET_NO":999,"REV_AT_EPOCH":21000,"BSTAR":-0.00041186,"MEAN_MOTION_DOT":-1.42e-6,"MEAN_MOTION_DDOT":0},{"OBJECT_NAME":"ONEWEB-0248","OBJECT_ID":"2021-045AH","EPOCH":"2025-09-29T14:47:10.017024","MEAN_MOTION":13.15547657,"ECCENTRICITY":0.0001809,"INCLINATION":87.9007,"RA_OF_ASC_NODE":311.1764,"ARG_OF_PERICENTER":115.9379,"MEAN_ANOMALY":244.1938,"EPHEMERIS_TYPE":0,"CLASSIFICATION_TYPE":"U","NORAD_CAT_ID":48798,"ELEMENT_SET_NO":999,"REV_AT_EPOCH":21015,"BSTAR":-0.00069759,"MEAN_MOTION_DOT":-2.5e-6,"MEAN_MOTION_DDOT":0},{"OBJECT_NAME":"ONEWEB-0225","OBJECT_ID":"2021-045AJ","EPOCH":"2025-09-29T15:19:07.120704","MEAN_MOTION":13.15550579,"ECCENTRICITY":0.0001355,"INCLINATION":87.8999,"RA_OF_ASC_NODE":311.2024,"ARG_OF_PERICENTER":112.2564,"MEAN_ANOMALY":247.871,"EPHEMERIS_TYPE":0,"CLASSIFICATION_TYPE":"U","NORAD_CAT_ID":48799,"ELEMENT_SET_NO":999,"REV_AT_EPOCH":21016,"BSTAR":0.0006322,"MEAN_MOTION_DOT":2.51e-6,"MEAN_MOTION_DDOT":0},{"OBJECT_NAME":"ONEWEB-0215","OBJECT_ID":"2021-045AK","EPOCH":"2025-09-29T14:35:47.633280","MEAN_MOTION":13.15548747,"ECCENTRICITY":0.0001515,"INCLINATION":87.9008,"RA_OF_ASC_NODE":311.1612,"ARG_OF_PERICENTER":116.2729,"MEAN_ANOMALY":243.8557,"EPHEMERIS_TYPE":0,"CLASSIFICATION_TYPE":"U","NORAD_CAT_ID":48800,"ELEMENT_SET_NO":999,"REV_AT_EPOCH":21003,"BSTAR":-4.8128e-5,"MEAN_MOTION_DOT":-5.0e-8,"MEAN_MOTION_DDOT":0},{"OBJECT_NAME":"ONEWEB-0216","OBJECT_ID":"2021-045AL","EPOCH":"2025-09-29T14:49:29.038080","MEAN_MOTION":13.15550418,"ECCENTRICITY":0.0001661,"INCLINATION":87.8998,"RA_OF_ASC_NODE":311.1981,"ARG_OF_PERICENTER":91.627,"MEAN_ANOMALY":268.5051,"EPHEMERIS_TYPE":0,"CLASSIFICATION_TYPE":"U","NORAD_CAT_ID":48801,"ELEMENT_SET_NO":999,"REV_AT_EPOCH":21004,"BSTAR":4.5423e-5,"MEAN_MOTION_DOT":3.0e-7,"MEAN_MOTION_DDOT":0},{"OBJECT_NAME":"ONEWEB-0239","OBJECT_ID":"2021-045AM","EPOCH":"2025-09-29T13:06:46.437120","MEAN_MOTION":13.15550305,"ECCENTRICITY":0.0001801,"INCLINATION":87.8998,"RA_OF_ASC_NODE":311.227,"ARG_OF_PERICENTER":122.496,"MEAN_ANOMALY":237.6344,"EPHEMERIS_TYPE":0,"CLASSIFICATION_TYPE":"U","NORAD_CAT_ID":48802,"ELEMENT_SET_NO":999,"REV_AT_EPOCH":21007,"BSTAR":0.00014722,"MEAN_MOTION_DOT":6.8e-7,"MEAN_MOTION_DDOT":0},{"OBJECT_NAME":"ONEWEB-0249","OBJECT_ID":"2021-060A","EPOCH":"2025-09-29T12:49:41.822112","MEAN_MOTION":13.1659575,"ECCENTRICITY":0.00019,"INCLINATION":87.8966,"RA_OF_ASC_NODE":280.7207,"ARG_OF_PERICENTER":93.4206,"MEAN_ANOMALY":266.7142,"EPHEMERIS_TYPE":0,"CLASSIFICATION_TYPE":"U","NORAD_CAT_ID":48967,"ELEMENT_SET_NO":999,"REV_AT_EPOCH":20531,"BSTAR":8.1463e-5,"MEAN_MOTION_DOT":4.4e-7,"MEAN_MOTION_DDOT":0},{"OBJECT_NAME":"ONEWEB-0250","OBJECT_ID":"2021-060B","EPOCH":"2025-09-29T13:33:05.527584","MEAN_MOTION":13.25814642,"ECCENTRICITY":0.0002579,"INCLINATION":87.8965,"RA_OF_ASC_NODE":279.3233,"ARG_OF_PERICENTER":111.1173,"MEAN_ANOMALY":249.0239,"EPHEMERIS_TYPE":0,"CLASSIFICATION_TYPE":"U","NORAD_CAT_ID":48968,"ELEMENT_SET_NO":999,"REV_AT_EPOCH":20568,"BSTAR":0.00022982,"MEAN_MOTION_DOT":1.14e-6,"MEAN_MOTION_DDOT":0},{"OBJECT_NAME":"ONEWEB-0252","OBJECT_ID":"2021-060D","EPOCH":"2025-09-29T13:35:17.771424","MEAN_MOTION":13.1659305,"ECCENTRICITY":0.0001738,"INCLINATION":87.8968,"RA_OF_ASC_NODE":280.7072,"ARG_OF_PERICENTER":78.9349,"MEAN_ANOMALY":281.1977,"EPHEMERIS_TYPE":0,"CLASSIFICATION_TYPE":"U","NORAD_CAT_ID":48970,"ELEMENT_SET_NO":999,"REV_AT_EPOCH":20536,"BSTAR":0.00033834,"MEAN_MOTION_DOT":1.42e-6,"MEAN_MOTION_DDOT":0},{"OBJECT_NAME":"ONEWEB-0253","OBJECT_ID":"2021-060E","EPOCH":"2025-09-29T13:19:20.370432","MEAN_MOTION":13.16593271,"ECCENTRICITY":0.0001651,"INCLINATION":87.8966,"RA_OF_ASC_NODE":280.7132,"ARG_OF_PERICENTER":94.8907,"MEAN_ANOMALY":265.2412,"EPHEMERIS_TYPE":0,"CLASSIFICATION_TYPE":"U","NORAD_CAT_ID":48971,"ELEMENT_SET_NO":999,"REV_AT_EPOCH":20529,"BSTAR":0.00032417,"MEAN_MOTION_DOT":1.37e-6,"MEAN_MOTION_DDOT":0},{"OBJECT_NAME":"ONEWEB-0254","OBJECT_ID":"2021-060F","EPOCH":"2025-09-29T13:33:02.061216","MEAN_MOTION":13.1659563,"ECCENTRICITY":0.0001705,"INCLINATION":87.8972,"RA_OF_ASC_NODE":280.699,"ARG_OF_PERICENTER":103.3761,"MEAN_ANOMALY":256.756,"EPHEMERIS_TYPE":0,"CLASSIFICATION_TYPE":"U","NORAD_CAT_ID":48972,"ELEMENT_SET_NO":999,"REV_AT_EPOCH":20529,"BSTAR":0.00037562,"MEAN_MOTION_DOT":1.56e-6,"MEAN_MOTION_DDOT":0}]
