ONEWEB-0212             
1 48791U 21045AA  25272.56143573  .00000141  00000+0  34055-3 0  9998
2 48791  87.9003 311.1863 0001863  96.5117 263.6226 13.15549928210162
ONEWEB-0227             
1 48792U 21045AB  25272.63670924  .00000174  00000+0  42903-3 0  9999
2 48792  87.8997 311.1887 0001736  98.6635 261.4692 13.15547909210123
ONEWEB-0226             
1 48793U 21045AC  25272.63035725  .00000147  00000+0  35619-3 0  9990
2 48793  87.8999 311.1975 0001448  97.7264 262.4031 13.15549677210090
ONEWEB-0224             
1 48794U 21045AD  25272.66998604 -.00000048  00000+0 -16128-3 0  9994
2 48794  87.8998 311.2250 0002332 118.3243 241.8123 13.15548518210026
ONEWEB-0233             
1 48795U 21045AE  25272.67458397 -.00000022  00000+0 -93034-4 0  9990
2 48795  87.8999 311.2351 0001703 105.4357 254.6961 13.15550130210041
ONEWEB-0190             
1 48796U 21045AF  25272.58599231 -.00000034  00000+0 -12536-3 0  9994
2 48796  87.8999 311.2151 0001217 113.3234 246.8024 13.15547119210105
ONEWEB-0236             
1 48797U 21045AG  25272.67947236 -.00000142  00000+0 -41186-3 0  9990
2 48797  87.8998 311.2077 0001973  94.2371 265.8985 13.15550355210002
ONEWEB-0248             
1 48798U 21045AH  25272.61608816 -.00000250  00000+0 -69759-3 0  9999
2 48798  87.9007 311.1764 0001809 115.9379 244.1938 13.15547657210159
ONEWEB-0225             
1 48799U 21045AJ  25272.63827686  .00000251  00000+0  63220-3 0  9996
2 48799  87.8999 311.2024 0001355 112.2564 247.8710 13.15550579210167
ONEWEB-0215             
1 48800U 21045AK  25272.60819020 -.00000005  00000+0 -48128-4 0  9999
2 48800  87.9008 311.1612 0001515 116.2729 243.8557 13.15548747210034
ONEWEB-0216             
1 48801U 21045AL  25272.61769720  .00000030  00000+0  45423-4 0  9993
2 48801  87.8998 311.1981 0001661  91.6270 268.5051 13.15550418210042
ONEWEB-0239             
1 48802U 21045AM  25272.54637080  .00000068  00000+0  14722-3 0  9997
2 48802  87.8998 311.2270 0001801 122.4960 237.6344 13.15550305210070
ONEWEB-0249             
1 48967U 21060A   25272.53451183  .00000044  00000+0  81463-4 0  9994
2 48967  87.8966 280.7207 0001900  93.4206 266.7142 13.16595750205311
ONEWEB-0250             
1 48968U 21060B   25272.56464731  .00000114  00000+0  22982-3 0  9999
2 48968  87.8965 279.3233 0002579 111.1173 249.0239 13.25814642205683
ONEWEB-0252             
1 48970U 21060D   25272.56617791  .00000142  00000+0  33834-3 0  9997
2 48970  87.8968 280.7072 0001738  78.9349 281.1977 13.16593050205365
ONEWEB-0253             
1 48971U 21060E   25272.55509688  .00000137  00000+0  32417-3 0  9992
2 48971  87.8966 280.7132 0001651  94.8907 265.2412 13.16593271205296
ONEWEB-0254             
1 48972U 21060F   25272.56460719  .00000156  00000+0  37562-3 0  9992
2 48972  87.8972 280.6990 0001705 103.3761 256.7560 13.16595630205299
